{
  "type": "FeatureCollection",
  "_esquema": "ver src/data/upriver/README.md",
  "features": [
    {
      "type": "Feature",
      "id": "tres-gargantas",
      "geometry": {
        "type": "Point",
        "coordinates": [
          -75.49328,
          -5.55985
        ]
      },
      "properties": {
        "tipo": "accidente",
        "faccion": "kukama",
        "nombre": {
          "es": "Las Tres Gargantas",
          "qu": null
        },
        "lengua": "es",
        "descripcion": "Tres cascadas y la maloca de Ayahumo, al final de un caño escondido que sube a las colinas. El único lugar con nombre en toda la obra. No se ve desde el río grande.",
        "apariciones": [
          {
            "episodio": 3,
            "camara": false,
            "nota": "se nombra"
          },
          {
            "episodio": 5,
            "nota": "las cascadas, la maloca de Ayahumo, la noche a solas",
            "medido": "fotogramas del máster publicado del EP05 cada 5 s (2026-09-09)",
            "historia": "Tres cascadas y un arcoíris. El bufeo se despide. Jeshuco encuentra a Ayahumo, le cuenta que Yawá ha muerto y pasa una noche solo en la selva: ojos en la oscuridad, el Tunchi. Al amanecer, Ayahumo lo acepta como aprendiz."
          },
          {
            "episodio": 6,
            "nota": "la toma en la maloca; la visión; el amanecer con el bufeo",
            "medido": "fotogramas del máster publicado del EP06 cada 5 s (2026-09-09)",
            "historia": "En la maloca, Ayahumo prepara la ayahuasca. Jeshuco bebe. En la visión: el río de antes, el río envenenado, una ciudad de pirámides y chimeneas, la Yacumama encadenada, el bufeo convertido en guerrera. Despierta transformado."
          },
          {
            "episodio": 7,
            "camara": false,
            "nota": "se deja atrás"
          }
        ],
        "estacion": "ambas",
        "orden": 4,
        "notas": "EN: the Three Gorges. EU: Hiru Arroiletan.",
        "fuente": "GUION_EPISODIO_05_LAS_TRES_GARGANTAS.md; srt/UPRIVER_PELICULA_v2.srt cues 6, 17, 19",
        "placeholder": true
      }
    },
    {
      "type": "Feature",
      "id": "colinas",
      "geometry": {
        "type": "Polygon",
        "coordinates": [
          [
            [
              -75.81328,
              -5.57985
            ],
            [
              -75.54328,
              -5.54985
            ],
            [
              -75.27328,
              -5.64985
            ],
            [
              -75.17328,
              -5.90985
            ],
            [
              -75.34328,
              -6.14985
            ],
            [
              -75.71328,
              -6.18985
            ],
            [
              -75.94328,
              -5.94985
            ],
            [
              -75.89328,
              -5.72985
            ],
            [
              -75.81328,
              -5.57985
            ]
          ]
        ]
      },
      "properties": {
        "lengua": "es",
        "estacion": "ambas",
        "placeholder": true,
        "tipo": "accidente",
        "subtipo": "colinas",
        "faccion": "ninguna",
        "nombre": {
          "es": "Las colinas de las Gargantas",
          "qu": null
        },
        "etiqueta": false,
        "descripcion": "El único relieve de la llanura: las colinas de donde caen las tres cascadas.",
        "apariciones": [
          {
            "episodio": 5,
            "camara": false
          },
          {
            "episodio": 6,
            "camara": false
          }
        ],
        "notas": "Placeholder. Una cascada necesita desnivel; la llanura no lo tiene. Nombre descriptivo.",
        "fuente": "GUION_EPISODIO_05 (tres cascadas majestuosas); Igor (2026-09-09)"
      }
    }
  ]
}
