{
  "type": "FeatureCollection",
  "_esquema": "ver src/data/upriver/README.md",
  "features": [
    {
      "type": "Feature",
      "id": "territorio-imperio",
      "geometry": {
        "type": "Polygon",
        "coordinates": [
          [
            [
              -75.7,
              -4.4
            ],
            [
              -74.85,
              -4.4
            ],
            [
              -74.95,
              -4.62
            ],
            [
              -75.1,
              -4.72
            ],
            [
              -75.2,
              -4.85
            ],
            [
              -75.45,
              -4.95
            ],
            [
              -75.7,
              -5.0
            ],
            [
              -75.7,
              -4.4
            ]
          ]
        ]
      },
      "properties": {
        "tipo": "territorio",
        "faccion": "imperio",
        "nombre": {
          "es": "Territorio del imperio",
          "qu": null
        },
        "lengua": "es",
        "descripcion": "Zona bajo control directo del imperio en este tramo del río: la ciudad y su entorno.",
        "apariciones": [
          {
            "episodio": 8
          },
          {
            "episodio": 9
          },
          {
            "episodio": 10
          }
        ],
        "estacion": "ambas",
        "notas": "Extensión placeholder. El imperio no tiene nombre en la obra.",
        "fuente": "pelicula/DOSSIER_UPRIVER.md §Mundo",
        "placeholder": true,
        "escala": "local"
      }
    },
    {
      "type": "Feature",
      "id": "campamento-minero",
      "geometry": {
        "type": "Point",
        "coordinates": [
          -74.35,
          -5.09
        ]
      },
      "properties": {
        "tipo": "avanzada",
        "faccion": null,
        "nombre": {
          "es": "El campamento minero",
          "qu": null
        },
        "lengua": "es",
        "descripcion": "Las máquinas, al final del desvío de los rápidos. Primera avanzada industrial en el río y primera prueba de que alguien lo está matando.",
        "apariciones": [
          {
            "episodio": 4,
            "desde": 700.0,
            "hasta": 846.083,
            "provisional": true
          }
        ],
        "estacion": "ambas",
        "orden": 3,
        "notas": "Sin nombre en la obra. Facción sin determinar: los trabajadores hablan castellano (EP2/EP4).",
        "fuente": "GUION_EPISODIO_04_EL_RASTRO_DEL_VENENO.md",
        "placeholder": true
      }
    },
    {
      "type": "Feature",
      "id": "imperio-continental",
      "geometry": {
        "type": "Polygon",
        "coordinates": [
          [
            [
              -80.5,
              -4.0
            ],
            [
              -79.0,
              -4.6
            ],
            [
              -78.5,
              -4.5
            ],
            [
              -77.5,
              -4.7
            ],
            [
              -76.5,
              -4.6
            ],
            [
              -75.5,
              -4.55
            ],
            [
              -74.5,
              -4.5
            ],
            [
              -73.6,
              -4.5
            ],
            [
              -72.0,
              -4.0
            ],
            [
              -70.0,
              -4.2
            ],
            [
              -68.0,
              -6.0
            ],
            [
              -66.0,
              -10.0
            ],
            [
              -65.0,
              -15.0
            ],
            [
              -66.5,
              -21.5
            ],
            [
              -69.5,
              -23.5
            ],
            [
              -71.5,
              -19.0
            ],
            [
              -74.0,
              -15.5
            ],
            [
              -76.5,
              -12.0
            ],
            [
              -79.0,
              -8.0
            ],
            [
              -81.0,
              -5.5
            ],
            [
              -80.5,
              -4.0
            ]
          ]
        ]
      },
      "properties": {
        "tipo": "territorio",
        "escala": "continental",
        "faccion": "imperio",
        "nombre": {
          "es": "El imperio",
          "qu": null
        },
        "lengua": "es",
        "descripcion": "En 1532 Atahualpa no cayó en la trampa de Pizarro. España colonizó las costas y las tierras bajas, pero nunca penetró la Amazonia profunda. El imperio chimú-inca sobrevivió en los Andes, se industrializó y extendió su control sobre la cuenca amazónica. Quinientos años después somete la selva. Comercia y comparte tecnología con los países y reinos hispanohablantes que lo rodean.",
        "apariciones": [],
        "estacion": "ambas",
        "notas": "Extensión PLACEHOLDER. Igor (2026-09-09): la frontera norte es el río Marañón, así la reserva Pacaya Samiria (donde vive Jeshuco) queda dentro del imperio. Al norte del Marañón, los países hispanohablantes. El límite oriental y el sur son provisionales. El imperio no tiene nombre en la obra.",
        "fuente": "UCRONIA_INTEGRACION.md §Premisa; Igor (2026-09-09)",
        "placeholder": true
      }
    },
    {
      "type": "Feature",
      "id": "frontera",
      "geometry": {
        "type": "LineString",
        "coordinates": [
          [
            -75.7,
            -4.56
          ],
          [
            -75.3,
            -4.52
          ],
          [
            -74.9,
            -4.58
          ],
          [
            -74.5,
            -4.5
          ],
          [
            -74.1,
            -4.47
          ],
          [
            -73.7,
            -4.5
          ]
        ]
      },
      "properties": {
        "tipo": "frontera",
        "escala": "local",
        "faccion": "imperio",
        "nombre": {
          "es": "La frontera del imperio",
          "qu": null
        },
        "lengua": "es",
        "descripcion": "El río grande que cierra el mundo por el norte es la raya del imperio: al otro lado empiezan las tierras de los hispanohablantes. El poblado de Jeshuco queda a un día de canoa de la frontera, y por su río pasan los barcos que comercian con el imperio.",
        "apariciones": [
          {
            "episodio": 1,
            "camara": false
          },
          {
            "episodio": 2,
            "camara": false
          }
        ],
        "estacion": "ambas",
        "notas": "Trazado PLACEHOLDER sobre el curso real del Marañón, que bordea Pacaya Samiria por el norte. Igor (2026-09-09): «la frontera puede ser el río Marañón en Perú, así la reserva entra dentro del imperio». Nombre en pantalla por decidir.",
        "fuente": "Igor (2026-09-09); UCRONIA_INTEGRACION.md §Premisa",
        "placeholder": true
      }
    }
  ]
}
